NOAA 1 [-]              
1 04793U 70106A   19291.50714649 -.00000029  00000-0  93996-4 0  9997
2 04793 101.6920 358.4258 0031838  51.0249  64.5498 12.53991787236125
NOAA 2 (ITOS-D) [-]     
1 06235U 72082A   19291.68379044 -.00000034  00000-0  69783-4 0  9993
2 06235 101.8123 257.3868 0004072 135.3016 274.7173 12.53119242150125
NOAA 3 [-]              
1 06920U 73086A   19291.60531186 -.00000034  00000-0  81895-4 0  9996
2 06920 102.0671 259.6073 0006323 291.5227 197.0195 12.40341832 80176
NOAA 4 [-]              
1 07529U 74089A   19291.61059080 -.00000038  00000-0  43817-4 0  9991
2 07529 101.7698 258.0764 0008760 169.1209 317.5492 12.53134882 54689
NOAA 5 [-]              
1 09057U 76077A   19291.66698372 -.00000038  00000-0  44474-4 0  9996
2 09057 101.9480 259.9492 0009843 137.5462 266.4135 12.37747858953374
TIROS N [P]             
1 11060U 78096A   19291.79221889  .00000006  00000-0  24059-4 0  9996
2 11060  98.7766 347.8972 0011471  61.6503 298.5827 14.18246361333970
NOAA 6 [P]              
1 11416U 79057A   19292.11534020  .00000032  00000-0  27829-4 0  9997
2 11416  98.6460 286.0522 0009299 244.7221 115.3000 14.33547816102414
NOAA 7 [-]              
1 12553U 81059A   19291.72002084 -.00000032  00000-0  71427-5 0  9996
2 12553  99.0967 301.8903 0011478   1.9880 126.2826 14.17264687980009
NOAA 8 [-]              
1 13923U 83022A   19291.61099686  .00000004  00000-0  18945-4 0  9995
2 13923  98.5946 275.0521 0015176 173.9715 186.1652 14.28683618903497
NOAA 9 [P]              
1 15427U 84123A   19291.89141363  .00000012  00000-0  28659-4 0  9991
2 15427  98.9056 240.7031 0015709  49.5761   9.2272 14.16079061798965
NOAA 10 [-]             
1 16969U 86073A   19291.65786984 -.00000013  00000-0  11962-4 0  9998
2 16969  98.4872 284.7446 0011094 289.9745 201.0566 14.28080671721989
NOAA 11 [-]             
1 19531U 88089A   19291.68114465 -.00000024  00000-0  87243-5 0  9995
2 19531  98.4375 319.4911 0012353 102.5139 257.7418 14.15246306603229
NOAA 12 [-]             
1 21263U 91032A   19291.80464469 -.00000014  00000-0  12127-4 0  9995
2 21263  98.5146 303.7543 0012739 308.7264  51.2777 14.25900537478112
NOAA 13 [-]             
1 22739U 93050A   19291.91342092  .00000003  00000-0  23703-4 0  9994
2 22739  98.4669 308.0962 0008450 248.1847 111.8428 14.12738996349737
NOAA 14 [-]             
1 23455U 94089A   19291.90960487 -.00000008  00000-0  17891-4 0  9993
2 23455  98.5825 348.4804 0008596 230.8879 129.1531 14.14135566279257
NOAA 15 [B]             
1 25338U 98030A   19291.93243114  .00000014  00000-0  24715-4 0  9998
2 25338  98.7405 312.9421 0009467 245.2594 114.7601 14.25935266114419
NOAA 16 [-]             
1 26536U 00055A   19291.85390730  .00000006  00000-0  26116-4 0  9995
2 26536  98.7646   1.3699 0011416  60.6230 299.6081 14.13237565279978
NOAA 17 [-]             
1 27453U 02032A   19291.79037502  .00000016  00000-0  25058-4 0  9994
2 27453  98.5503 239.0033 0010837 221.4017 138.6342 14.25049613900325
NOAA 18 [B]             
1 28654U 05018A   19291.83233994  .00000065  00000-0  59924-4 0  9996
2 28654  99.0819 340.5506 0014210 190.5447 169.5428 14.12459655742666
NOAA 19 [+]             
1 33591U 09005A   19291.89161018 -.00000016  00000-0  16517-4 0  9993
2 33591  99.1889 286.0219 0014598  39.0395 321.1826 14.12380042550896
SUOMI NPP [+]           
1 37849U 11061A   19291.93670332  .00000016  00000-0  28404-4 0  9994
2 37849  98.7091 228.4321 0000709  97.1647 328.6373 14.19554390413224
NOAA 20 [+]             
1 43013U 17073A   19291.88809082 -.00000001  00000-0  20455-4 0  9996
2 43013  98.7290 228.2278 0000871  67.0669 293.0599 14.19545746 99246
